HAWK-7A                 
1 56191U 23054P   26068.68910991  .00007758  00000+0  30248-3 0  9997
2 56191  97.2827 318.5579 0004249  51.2619 308.8999 15.26207271161849
STARLINK-31783          
1 59750U 24090W   26068.34833197 -.00001420  00000+0 -42087-4 0  9994
2 59750  43.0002 185.7862 0001719 288.5690  71.4975 15.27582441103376
